OBJECT_NAME,OBJECT_ID,EPOCH,MEAN_MOTION,ECCENTRICITY,INCLINATION,RA_OF_ASC_NODE,ARG_OF_PERICENTER,MEAN_ANOMALY,EPHEMERIS_TYPE,CLASSIFICATION_TYPE,NORAD_CAT_ID,ELEMENT_SET_NO,REV_AT_EPOCH,BSTAR,MEAN_MOTION_DOT,MEAN_MOTION_DDOT
STARLINK-30255,2023-119E,2026-06-13T17:07:35.244768,15.27579779,.0001609,43.0046,259.1502,283.0716,76.9956,0,U,57606,999,15777,.92684E-6,-.237E-5,0
STARLINK-30252,2023-119F,2026-06-13T16:27:40.889088,15.27575310,.0001231,43.0026,244.5069,277.0463,83.0249,0,U,57607,999,15794,.24012E-4,.399E-5,0
STARLINK-30258,2023-119G,2026-06-13T18:08:40.026912,15.27569657,.0002833,43.0032,259.4580,274.6120,85.4408,0,U,57608,999,15777,-.21233E-3,-.6099E-4,0
STARLINK-30174,2023-119H,2026-06-13T13:42:37.594944,15.27563504,.0001122,43.0146,259.7988,83.1741,276.9239,0,U,57609,999,15775,.73343E-4,.1755E-4,0
STARLINK-30248,2023-119J,2026-06-13T13:33:24.127776,15.27551823,.0001583,42.9992,259.7501,259.3611,100.7062,0,U,57610,999,15775,-.11923E-3,-.3539E-4,0
STARLINK-30052,2023-119K,2026-06-13T13:48:08.721216,15.27595655,.0000878,43.0079,259.8232,313.7338,46.3441,0,U,57611,999,15773,.60883E-4,.1414E-4,0
STARLINK-30245,2023-119L,2026-06-13T13:35:13.776288,15.27575748,.0001006,43.0018,259.7562,284.1836,75.8904,0,U,57612,999,15775,.2182E-4,.338E-5,0
STARLINK-30041,2023-119M,2026-06-12T23:42:37.671264,15.27576283,.00011775,42.9917,263.1580,91.4326,268.6661,0,U,57613,999,15766,-.15677546E-4,-.693E-5,0
STARLINK-30244,2023-119N,2026-06-12T23:53:43.655424,15.27580227,.00006614,42.9918,263.2139,166.4580,193.6290,0,U,57614,999,15766,.28256706E-4,.516E-5,0
STARLINK-30246,2023-119P,2026-06-12T23:59:15.555840,15.27587447,.00018953,43.0054,263.2253,258.2581,101.8058,0,U,57615,999,15766,.70061465E-4,.1666E-4,0
STARLINK-30075,2023-119Q,2026-06-13T13:31:32.251872,15.27570442,.000113,43.0061,259.7483,266.8876,93.1847,0,U,57616,999,15775,.32769E-4,.639E-5,0
STARLINK-30148,2023-119R,2026-06-13T16:49:06.839040,15.27570166,.0001432,43.0029,259.0581,277.9787,82.0902,0,U,57617,999,15777,.73898E-5,-.59E-6,0
STARLINK-30249,2023-119S,2026-06-12T14:13:58.785600,15.27578224,.00008507,43.0112,265.3643,289.5079,70.5681,0,U,57618,999,15760,.34472963E-4,.687E-5,0
STARLINK-30141,2023-119U,2026-06-13T17:11:17.767104,15.27576035,.0001415,42.9979,259.1819,294.1913,65.8791,0,U,57620,999,15777,.79593E-4,.1928E-4,0
STARLINK-30150,2023-119V,2026-06-12T23:50:00.805632,15.27579927,.00014481,42.9992,263.2054,275.0232,85.0455,0,U,57621,999,15766,.10520438E-4,.27E-6,0
STARLINK-30056,2023-119W,2026-06-13T00:04:48.919008,15.27575385,.00015505,43.0016,263.2514,264.3022,95.7653,0,U,57622,999,15766,.2851585E-5,-.184E-5,0
STARLINK-30100,2023-119X,2026-06-13T12:43:37.464672,15.27579529,.00014862,43.0014,260.3478,258.4533,101.6152,0,U,57623,999,15774,.35528062E-4,.716E-5,0
STARLINK-30309,2023-122A,2026-06-13T14:26:56.826240,15.27575377,.0000785,43.0021,271.0037,280.0998,79.9765,0,U,57632,999,15687,.60737E-4,.141E-4,0
STARLINK-30306,2023-122B,2026-06-13T14:32:29.653728,15.27577736,.0000325,43.0062,271.0315,230.0434,130.0390,0,U,57633,999,15687,-.22226E-5,-.323E-5,0
STARLINK-30323,2023-122C,2026-06-12T23:48:09.518112,15.27577622,.00000877,43.0029,263.1345,78.1922,281.8940,0,U,57634,999,15691,.18049643E-4,.235E-5,0
STARLINK-30329,2023-122D,2026-06-13T17:50:02.243328,15.27584300,.0005388,43.0157,270.3430,275.5947,84.4290,0,U,57635,999,15689,-.11184E-3,-.3342E-4,0
STARLINK-30330,2023-122E,2026-06-13T17:55:35.494176,15.27573799,.0003612,43.0063,270.3761,273.5018,86.5421,0,U,57636,999,15689,.3529E-4,.708E-5,0
STARLINK-30311,2023-122F,2026-06-13T13:33:15.530112,15.27600313,.0001245,42.9955,270.7219,241.0172,119.0555,0,U,57637,999,15687,.18459E-3,.4824E-4,0
STARLINK-30328,2023-122G,2026-06-13T16:52:45.990048,15.27572947,.0001697,43.0022,258.9594,273.2279,86.8379,0,U,57638,999,15703,-.12384E-3,-.3668E-4,0
