STARLINK-30255          
1 57606U 23119E   26164.71360237 -.00000237  00000+0  92684-6 0  9995
2 57606  43.0046 259.1502 0001609 283.0716  76.9956 15.27579779157778
STARLINK-30252          
1 57607U 23119F   26164.68588992  .00000399  00000+0  24012-4 0  9998
2 57607  43.0026 244.5069 0001231 277.0463  83.0249 15.27575310157946
STARLINK-30258          
1 57608U 23119G   26164.75601883 -.00006099  00000+0 -21233-3 0  9998
2 57608  43.0032 259.4580 0002833 274.6120  85.4408 15.27569657157770
STARLINK-30174          
1 57609U 23119H   26164.57126846  .00001755  00000+0  73343-4 0  9992
2 57609  43.0146 259.7988 0001122  83.1741 276.9239 15.27563504157756
STARLINK-30248          
1 57610U 23119J   26164.56486259 -.00003539  00000+0 -11923-3 0  9999
2 57610  42.9992 259.7501 0001583 259.3611 100.7062 15.27551823157759
STARLINK-30052          
1 57611U 23119K   26164.57510094  .00001414  00000+0  60883-4 0  9994
2 57611  43.0079 259.8232 0000878 313.7338  46.3441 15.27595655157732
STARLINK-30245          
1 57612U 23119L   26164.56613167  .00000338  00000+0  21820-4 0  9991
2 57612  43.0018 259.7562 0001006 284.1836  75.8904 15.27575748157753
STARLINK-30041          
1 57613U 23119M   26163.98793601 -.00000693  00000+0 -15678-4 0  9999
2 57613  42.9917 263.1580 0001177  91.4326 268.6661 15.27576283157668
STARLINK-30244          
1 57614U 23119N   26163.99564416  .00000516  00000+0  28257-4 0  9990
2 57614  42.9918 263.2139 0000661 166.4580 193.6290 15.27580227157661
STARLINK-30246          
1 57615U 23119P   26163.99948560  .00001666  00000+0  70061-4 0  9994
2 57615  43.0054 263.2253 0001895 258.2581 101.8058 15.27587447157667
STARLINK-30075          
1 57616U 23119Q   26164.56356773  .00000639  00000+0  32769-4 0  9990
2 57616  43.0061 259.7483 0001130 266.8876  93.1847 15.27570442157751
STARLINK-30148          
1 57617U 23119R   26164.70077360 -.00000059  00000+0  73898-5 0  9995
2 57617  43.0029 259.0581 0001432 277.9787  82.0902 15.27570166157771
STARLINK-30249          
1 57618U 23119S   26163.59304150  .00000687  00000+0  34473-4 0  9993
2 57618  43.0112 265.3643 0000850 289.5079  70.5681 15.27578224157601
STARLINK-30141          
1 57620U 23119U   26164.71617786  .00001928  00000+0  79593-4 0  9994
2 57620  42.9979 259.1819 0001415 294.1913  65.8791 15.27576035157771
STARLINK-30150          
1 57621U 23119V   26163.99306488  .00000027  00000+0  10520-4 0  9992
2 57621  42.9992 263.2054 0001448 275.0232  85.0455 15.27579927157664
STARLINK-30056          
1 57622U 23119W   26164.00334397 -.00000184  00000+0  28516-5 0  9996
2 57622  43.0016 263.2514 0001550 264.3022  95.7653 15.27575385157669
STARLINK-30100          
1 57623U 23119X   26164.53029473  .00000716  00000+0  35528-4 0  9991
2 57623  43.0014 260.3478 0001486 258.4533 101.6152 15.27579529157748
STARLINK-30309          
1 57632U 23122A   26164.60204660  .00001410  00000+0  60737-4 0  9998
2 57632  43.0021 271.0037 0000785 280.0998  79.9765 15.27575377156870
STARLINK-30306          
1 57633U 23122B   26164.60589877 -.00000323  00000+0 -22226-5 0  9991
2 57633  43.0062 271.0315 0000325 230.0434 130.0390 15.27577736156879
STARLINK-30323          
1 57634U 23122C   26163.99177683  .00000235  00000+0  18050-4 0  9990
2 57634  43.0029 263.1345 0000087  78.1922 281.8940 15.27577622156911
STARLINK-30329          
1 57635U 23122D   26164.74308152 -.00003342  00000+0 -11184-3 0  9996
2 57635  43.0157 270.3430 0005388 275.5947  84.4290 15.27584300156891
STARLINK-30330          
1 57636U 23122E   26164.74693859  .00000708  00000+0  35290-4 0  9994
2 57636  43.0063 270.3761 0003612 273.5018  86.5421 15.27573799156899
STARLINK-30311          
1 57637U 23122F   26164.56476308  .00004824  00000+0  18459-3 0  9993
2 57637  42.9955 270.7219 0001245 241.0172 119.0555 15.27600313156872
STARLINK-30328          
1 57638U 23122G   26164.70331007 -.00003668  00000+0 -12384-3 0  9994
2 57638  43.0022 258.9594 0001697 273.2279  86.8379 15.27572947157035
